SAUDISAT 1C (SO-50)     
1 27607U 02058C   26198.97124482  .00000371  00000+0  61897-4 0  9995
2 27607  64.5519  33.7353 0074441 256.7655 102.5140 14.83101410269029
SAUDISAT 2              
1 28371U 04025F   26199.41981834  .00000087  00000+0  30506-4 0  9999
2 28371  98.5522 200.2109 0024266 198.0745 161.9592 14.56699230170299
SAUDISAT 3              
1 31118U 07012B   26199.60753314  .00000087  00000+0  22236-4 0  9993
2 31118  98.1469 150.0317 0015769 124.5705 235.6992 14.71441215 32362
PISAT                   
1 41784U 16059B   26199.47663872  .00000426  00000+0  80076-4 0  9991
2 41784  97.8193 198.5872 0030533 104.8101 255.6491 14.69032901524336
FLYING LAPTOP           
1 42831U 17042G   26199.64585448  .00002050  00000+0  16311-3 0  9994
2 42831  97.4826 353.9983 0019543  21.5324 338.6718 15.01326759491172
SALSAT                  
1 46495U 20068K   26199.01462697  .00004061  00000+0  14177-3 0  9999
2 46495  97.8861 203.9671 0009495 182.8082 177.3106 15.30195257320078
